{"name":"Girardin","address":{"thoroughfare":"19 Rue des Têtes","postalcode":"68000","locality":"Colmar"}}
{"name":"La Passagère","address":{"thoroughfare":"33 boulevard E. -Baudoin","postalcode":"06160","locality":"Juan-les-Pins"}}
{"name":"L'Auberge de Bagatelle","address":{"thoroughfare":"489 av. Bollée","postalcode":"72000","locality":"Le Mans"}}
{"name":"Le Taillevent","address":{"thoroughfare":"15 Rue Lamennais","postalcode":"75008","locality":"Paris"}}
{"name":"Helen","address":{"thoroughfare":"3 r.Berryer","postalcode":"75008","locality":"Paris"}}
{"name":"William Frachot","address":{"thoroughfare":"5 rue Michelet","postalcode":"21000","locality":"DIJON"}}
{"name":"Le M","address":{"thoroughfare":"22 r. du Cdt-Drogou","postalcode":"29200","locality":"Brest"}}
{"name":"Le Meurice Alain Ducasse","address":{"thoroughfare":"228 Rue de Rivoli","postalcode":"75001","locality":"Paris"}}
{"name":"La Barbacane","address":{"thoroughfare":"Place Auguste-Pierre-Pont","postalcode":"11000","locality":"Carcassonne"}}
{"name":"Château de Mercuès","address":{"thoroughfare":"Route du Château","postalcode":"46090","locality":"Mercuès"}}
{"name":"Dominique Bouchet","address":{"thoroughfare":"11 Rue Treilhard","postalcode":"75008","locality":"Paris"}}
{"name":"Hervé Busset","address":{"thoroughfare":"D901","postalcode":"12320","locality":"Conques"}}
{"name":"La Cachette","address":{"thoroughfare":"Rue des Cévennes","postalcode":"26000","locality":"Valence"}}
{"name":"Jérôme Brochot","address":{"thoroughfare":"Place Beaubernard","postalcode":"71300","locality":"Montceau-les-Mines"}}
{"name":"Le Hittau","address":{"thoroughfare":"1 rue du Nouaou","postalcode":"40230","locality":"SAINT-VINCENT-DE-TYROSSE"}}
{"name":"Hostellerie Bérard","address":{"thoroughfare":"Avenue Gabriel-Péri","postalcode":"83740","locality":"LA-CADIERE-D'AZUR"}}
{"name":"Domaine des Séquoias","address":{"thoroughfare":"54 Vie-de-Boussieu","postalcode":"38300","locality":"Ruy"}}
{"name":"L'Alchémille","address":{"thoroughfare":"53 rte de Lapoutroie","postalcode":"68240","locality":"Kaysersberg"}}
{"name":"Maison Kieny","address":{"thoroughfare":"7 Rue du Général de Gaulle","postalcode":"68400","locality":"Riedisheim"}}
{"name":"La Table des Merville","address":{"thoroughfare":"3 place Richard","postalcode":"31320","locality":"Castanet-Tolosan"}}
{"name":"Michel Chabran - La Grande Table","address":{"thoroughfare":"29 Avenue du Quarante-Cinquième Parallèle","postalcode":"26600","locality":"Pont-de-l'Isère"}}
{"name":"Au Trou Gascon","address":{"thoroughfare":"40 r. Taine","postalcode":"75012","locality":"Paris 12"}}
{"name":"Le Parc Les Crayères","address":{"thoroughfare":"64 Boulevard Henry Vasnier","postalcode":"51100","locality":"Reims"}}
{"name":"L'Odas","address":{"thoroughfare":"4 Passage Maurice Lenfant","postalcode":"76000","locality":"Rouen"}}
{"name":"Le Chiberta","address":{"thoroughfare":"3 Rue Arsène Houssaye","postalcode":"75008","locality":"Paris 08"}}
{"name":"Pic","address":{"thoroughfare":"285 avenue Victor Hugo","postalcode":"26000","locality":"Valence"}}
{"name":"Le St-Placide","address":{"thoroughfare":"6 place du poncel","postalcode":"35400","locality":"Saint-Malo"}}
{"name":"Le Vivarais","address":{"thoroughfare":"5 avenue Expilly","postalcode":"07600","locality":"VALS-LES-BAINS"}}
{"name":"Auberge du Cheval Blanc","address":{"thoroughfare":"4 Route de Wissembourg","postalcode":"67510","locality":"Lembach"}}
{"name":"L'Auberge des Glazicks","address":{"thoroughfare":"7 rue de la Plage","postalcode":"29550","locality":"PLOMODIERN"}}
{"name":"Au 14 Février","address":{"thoroughfare":"Le Plâtre-Durand","postalcode":"71570","locality":"Saint-Amour-Bellevue"}}
{"name":"Mirazur","address":{"thoroughfare":"30, Avenue Aristide Briand","postalcode":"06500","locality":"Menton"}}
{"name":"La Réserve Rimbaud","address":{"thoroughfare":"820 Avenue de Saint-Maur","postalcode":"34000","locality":"Montpellier"}}
{"name":"Le Petit Nice","address":{"thoroughfare":"Anse de Maldormé - Corniche J. F. Kennedy","postalcode":"13007","locality":"Marseille 07"}}
{"name":"La Promenade","address":{"thoroughfare":"2 promenade Jean-Jaurès","postalcode":"31590","locality":"Verfeil"}}
{"name":"JY'S","address":{"thoroughfare":"17 r. de la Poissonnerie","postalcode":"68000","locality":"Colmar"}}
{"name":"Le Fanal","address":{"thoroughfare":"17 Avenue du Fontaulé","postalcode":"66650","locality":"Banyuls-sur-Mer"}}
{"name":"L'Ambroisie","address":{"thoroughfare":"9 Place des Vosges","postalcode":"75004","locality":"Paris"}}
{"name":"Têtedoie","address":{"thoroughfare":"4 rue du Professeur Pierre MARION","postalcode":"69005","locality":"Lyon 05"}}
{"name":"Auberge de l'Ill","address":{"thoroughfare":"2 rue de Collonges-au-Mont d'Or","postalcode":"68970","locality":"Illhaeusern"}}
{"name":"Carré des Feuillants","address":{"thoroughfare":"14 rue de Castiglione","postalcode":"75001","locality":"Paris 01"}}
{"name":"Une Table au Sud","address":{"thoroughfare":"2 quai du Port","postalcode":"13002","locality":"Marseille"}}
{"name":"La Palmeraie","address":{"thoroughfare":"81 Boulevard de Gigaro","postalcode":"83420","locality":"La Croix-Valmer"}}
{"name":"La Table de Manville","address":{"thoroughfare":"Domaine de Manville - D27","postalcode":"13520","locality":"Les Baux-de-Provence"}}
{"name":"G.a. au Manoir de Rétival","address":{"thoroughfare":"Corniche de Rétival","postalcode":"76490","locality":"Caudebec-en-Caux"}}
{"name":"Elsa","address":{"thoroughfare":"Monte-Carlo Beach - Avenue Princesse Grace","postalcode":"06190","locality":"Roquebrune Cap-Martin"}}
{"name":"Le Grand Bleu","address":{"thoroughfare":"43 av. de la Gare","postalcode":"24200","locality":"Sarlat-la-Canéda"}}
{"name":"La Maison dans le Parc","address":{"thoroughfare":"3 r. Ste-Catherine","postalcode":"54000","locality":"Nancy"}}
{"name":"Le Champ des Lunes","address":{"thoroughfare":"route de Roquefraîche","postalcode":"84360","locality":"Lauris"}}
{"name":"La Table de Chaintré","address":{"thoroughfare":"72 pl. du Luminaire","postalcode":"71570","locality":"Chaintré"}}
{"name":"Le Pressoir","address":{"thoroughfare":"7 r. de l'Hôpital","postalcode":"56890","locality":"Saint-Avé"}}
{"name":"Copenhague","address":{"thoroughfare":"142 AVENUE DES CHAMPS ELYSEES","postalcode":"75008","locality":"PARIS"}}
{"name":"Le Magasin aux Vivres","address":{"thoroughfare":"5 Avenue Ney","postalcode":"57000","locality":"Metz"}}
{"name":"La Grande Maison de Bernard Magrez","address":{"thoroughfare":"10 Rue Labottière","postalcode":"33000","locality":"Bordeaux"}}
{"name":"Fontevraud Le Restaurant","address":{"thoroughfare":"38 rue St-Jean-de-l'Habit","postalcode":"49590","locality":"FONTEVRAUD-L'ABBAYE"}}
{"name":"Le Vieux Logis","address":{"thoroughfare":"Le Bourg","postalcode":"24510","locality":"Trémolat"}}
{"name":"Hélène Darroze","address":{"thoroughfare":"4 rue d'Assas","postalcode":"75006","locality":"Paris 06"}}
{"name":"La Dame de Pic","address":{"thoroughfare":"20 Rue du Louvre","postalcode":"75001","locality":"Paris 01"}}
{"name":"Auberge du Vert Mont","address":{"thoroughfare":"1318 r. du Mont-Noir","postalcode":"59299","locality":"Boeschepe"}}
{"name":"Le Violon d'Ingres","address":{"thoroughfare":"135 route St-Dominique","postalcode":"75007","locality":"Paris"}}
{"name":"Nakatani","address":{"thoroughfare":"27 Rue Pierre Leroux","postalcode":"75007","locality":"PARIS"}}
{"name":"Cayola","address":{"thoroughfare":"76 promenade de Cayola","postalcode":"85180","locality":"Talmont-Saint-Hilaire"}}
{"name":"Gill","address":{"thoroughfare":"9 quai de la Bourse","postalcode":"76000","locality":"Rouen"}}
{"name":"La Ferme de l'Hospital","address":{"thoroughfare":"rte du golf","postalcode":"74160","locality":"Bossey"}}
{"name":"Auberge des Saints Pères","address":{"thoroughfare":"212 av. de Nonneville","postalcode":"93600","locality":"Aulnay-sous-Bois"}}
{"name":"Pur' - Jean-François Rouquette","address":{"thoroughfare":"5 r. de la Paix","postalcode":"75002","locality":"Paris 02"}}
{"name":"Château de Pray","address":{"thoroughfare":"Rue du Cèdre","postalcode":"37400","locality":"Amboise"}}
{"name":"Le Chiquito","address":{"thoroughfare":"3 r. de l'Oise, La Bonneville","postalcode":"95540","locality":"Méry-sur-Oise"}}
{"name":"Le Pavé d'Auge","address":{"thoroughfare":"D49","postalcode":"14430","locality":"Beuvron-en-Auge"}}
{"name":"La Grenouillère","address":{"thoroughfare":"19 r. de la Grenouillère","postalcode":"62170","locality":"La Madelaine-sous-Montreuil"}}
{"name":"Le 1947","address":{"thoroughfare":"Cheval Blanc Courchevel - Le Jardin Alpin","postalcode":"73120","locality":"Courchevel 1850"}}
{"name":"La Table d'Eugène","address":{"thoroughfare":"18 r. Eugène-Sue","postalcode":"75018","locality":"Paris"}}
{"name":"Hostellerie Les Gorges de Pennafort","address":{"thoroughfare":"8660 RD 25","postalcode":"83830","locality":"Callas"}}
{"name":"René et Maxime Meilleur","address":{"thoroughfare":"Saint Marcel","postalcode":"73440","locality":"Saint-Martin-de-Belleville"}}
{"name":"Aux Terrasses","address":{"thoroughfare":"18 av. du 23-Janvier","postalcode":"71700","locality":"Tournus"}}
{"name":"Les Hautes Roches","address":{"thoroughfare":"86 quai de Loire","postalcode":"37210","locality":"Rochecorbon"}}
{"name":"Auberge Grand'Maison","address":{"thoroughfare":"1 r. Léon-le-Cerf","postalcode":"22530","locality":"Mûr-de-Bretagne"}}
{"name":"Le Pré - Xavier Beaudiment","address":{"thoroughfare":"3 Route de la Baraque","postalcode":"63830","locality":"Durtol"}}
{"name":"Auberge du Cellier","address":{"thoroughfare":"1 Rue de Sainte-Eugénie","postalcode":"66720","locality":"Montner"}}
{"name":"Michel Sarran","address":{"thoroughfare":"21 bd A.-Duportal","postalcode":"31000","locality":"Toulouse"}}
{"name":"Louison","address":{"thoroughfare":"2750 route de la cride","postalcode":"13610","locality":"Le Puy-Sainte-Réparade"}}
{"name":"Le Puits du Trésor","address":{"thoroughfare":"21 rte des Quatre-Châteaux","postalcode":"11600","locality":"Lastours"}}
{"name":"L'Essentiel","address":{"thoroughfare":"8 r. de la Clarté","postalcode":"24000","locality":"Périgueux"}}
{"name":"Hostellerie de Levernois","address":{"thoroughfare":"15 r. du Golf","postalcode":"21200","locality":"Levernois"}}
{"name":"Le Bistrot de Lagarde","address":{"thoroughfare":"rte d'Apt","postalcode":"84400","locality":"Lagarde-d'Apt"}}
{"name":"Septime","address":{"thoroughfare":"80 r. de Charonne","postalcode":"75011","locality":"Paris"}}
{"name":"Le Cercle","address":{"thoroughfare":"44 bd Lahitolle","postalcode":"18000","locality":"Bourges"}}
{"name":"Auberge du Pont d'Acigné","address":{"thoroughfare":"D392","postalcode":"35530","locality":"Noyal-sur-Vilaine"}}
{"name":"Val d'Auge","address":{"thoroughfare":"805 av. du Gén.-de-Gaulle","postalcode":"59910","locality":"Bondues"}}
{"name":"Le Candille","address":{"thoroughfare":"bd C. Rebuffel","postalcode":"06250","locality":"Mougins"}}
{"name":"Hostellerie de l'Abbaye de la Celle","address":{"thoroughfare":"10 Place Général de Gaulle","postalcode":"83170","locality":"La Celle"}}
{"name":"Michel Trama","address":{"thoroughfare":"52 r. Royale","postalcode":"47270","locality":"Puymirol"}}
{"name":"Le Lièvre Gourmand","address":{"thoroughfare":"28 quai du Châtelet","postalcode":"45000","locality":"Orléans"}}
{"name":"La Marine","address":{"thoroughfare":"3 r. Marie-Lemonnier","postalcode":"85330","locality":"L'Herbaudière"}}
{"name":"Jin","address":{"thoroughfare":"6 Rue de la Sourdière","postalcode":"75001","locality":"Paris"}}
{"name":"Le Park 45","address":{"thoroughfare":"45 bd de la Croisette","postalcode":"06400","locality":"Cannes"}}
{"name":"Le Castellaras","address":{"thoroughfare":"461 chemin Peymeyan","postalcode":"83440","locality":"Fayence"}}
{"name":"La Closerie","address":{"thoroughfare":"bd des Platanes","postalcode":"84240","locality":"Ansouis"}}
{"name":"La Lorraine","address":{"thoroughfare":"80 rue Principale","postalcode":"57330","locality":"Zoufftgen"}}
{"name":"Château Cordeillan-Bages","address":{"thoroughfare":"route des chateaux","postalcode":"33250","locality":"Pauillac"}}
{"name":"La Table du Gourmet","address":{"thoroughfare":"5 rue 1ère Armée","postalcode":"68340","locality":"Riquewihr"}}
{"name":"La Table de l'Alpaga","address":{"thoroughfare":"66 Allée des Marmousets","postalcode":"74120","locality":"Megève"}}
{"name":"L'Orangerie","address":{"thoroughfare":"31 Avenue George-V","postalcode":"75008","locality":"Paris"}}
{"name":"Le 39V","address":{"thoroughfare":"39 Avenue George V","postalcode":"75008","locality":"Paris 08"}}
{"name":"Le Bistro des Saveurs","address":{"thoroughfare":"35 Rue de Sélestat","postalcode":"67210","locality":"Obernai"}}
{"name":"Le Gambetta","address":{"thoroughfare":"12 r. Gambetta","postalcode":"49400","locality":"Saumur"}}
{"name":"Pertica","address":{"thoroughfare":"15 pl. de la République","postalcode":"41100","locality":"Vendôme"}}
{"name":"Le Saint-Martin","address":{"thoroughfare":"Avenue des Templiers","postalcode":"06140","locality":"Vence"}}
{"name":"Meulien","address":{"thoroughfare":"1 bis av. des Alpes","postalcode":"71700","locality":"Tournus"}}
{"name":"La Table de la Ferme","address":{"thoroughfare":"Vallée de l'Ortolo","postalcode":"20100","locality":"Sartène"}}
{"name":"Au Crocodile","address":{"thoroughfare":"10 rue de L'Outre","postalcode":"67000","locality":"STRASBOURG"}}
{"name":"Au 14 Février","address":{"thoroughfare":"2 r. du Portail","postalcode":"36100","locality":"Saint-Valentin"}}
{"name":"Au Souper Fin","address":{"thoroughfare":"1 rte de Clères","postalcode":"76690","locality":"Frichemesnil"}}
{"name":"La Table de Nans","address":{"thoroughfare":"corniche du Liouquet","postalcode":"13600","locality":"La Ciotat"}}
{"name":"Maison Rostang","address":{"thoroughfare":"20 rue Rennequin","postalcode":"75017","locality":"Paris"}}
{"name":"Apicius","address":{"thoroughfare":"Marché Saint Pierre 1 étage","postalcode":"63000","locality":"Clermont-Ferrand"}}
{"name":"Aigue Marine","address":{"thoroughfare":"5 r. M. -Berthelot","postalcode":"22220","locality":"Tréguier"}}
{"name":"Au Déjeuner de Sousceyrac","address":{"thoroughfare":"r. Pierre-Benoit","postalcode":"46190","locality":"Sousceyrac"}}
{"name":"Le Cerf","address":{"thoroughfare":"30 r. du Gén.-de-Gaulle","postalcode":"67520","locality":"Marlenheim"}}
{"name":"Le Gourmet de Sèze","address":{"thoroughfare":"125 Rue de Sèze","postalcode":"69006","locality":"Lyon"}}
{"name":"Le Lido","address":{"thoroughfare":"42 av. Napoléon-III","postalcode":"20110","locality":"Propriano"}}
{"name":"La Ribaudière","address":{"thoroughfare":"2 pl. du Port","postalcode":"16200","locality":"Bourg-Charente"}}
{"name":"114, Faubourg","address":{"thoroughfare":"114 r. Fg St-Honoré","postalcode":"75008","locality":"Paris 08"}}
{"name":"Agapé","address":{"thoroughfare":"51 rue Jouffroy-d'Abbans","postalcode":"75017","locality":"Paris 17"}}
{"name":"Skab","address":{"thoroughfare":"7 Rue de la République","postalcode":"30000","locality":"nimes"}}
{"name":"Girardin","address":{"thoroughfare":"19 Rue des Têtes","postalcode":"68000","locality":"Colmar"}}
{"name":"Hostellerie Bérard","address":{"thoroughfare":"Avenue Gabriel-Péri","postalcode":"83740","locality":"LA-CADIERE-D'AZUR"}}
{"name":"Auberge du Dun","address":{"thoroughfare":"3 rte de Dieppe","postalcode":"76740","locality":"Le Bourg-Dun"}}
{"name":"Michel Chabran - La Grande Table","address":{"thoroughfare":"29 Avenue du Quarante-Cinquième Parallèle","postalcode":"26600","locality":"Pont-de-l'Isère"}}
{"name":"L'Amaryllis","address":{"thoroughfare":"chemin de Martorey","postalcode":"71100","locality":"Saint-Rémy"}}
{"name":"Le Chiberta","address":{"thoroughfare":"3 Rue Arsène Houssaye","postalcode":"75008","locality":"Paris 08"}}
{"name":"La Table des Merville","address":{"thoroughfare":"3 place Richard","postalcode":"31320","locality":"Castanet-Tolosan"}}
{"name":"Le Violon d'Ingres","address":{"thoroughfare":"135 route St-Dominique","postalcode":"75007","locality":"Paris"}}
{"name":"Auberge du Cheval Blanc","address":{"thoroughfare":"4 Route de Wissembourg","postalcode":"67510","locality":"Lembach"}}
{"name":"L'Ambroisie","address":{"thoroughfare":"9 Place des Vosges","postalcode":"75004","locality":"Paris"}}
{"name":"Le Vivarais","address":{"thoroughfare":"5 avenue Expilly","postalcode":"07600","locality":"VALS-LES-BAINS"}}
{"name":"Le St-Placide","address":{"thoroughfare":"6 place du poncel","postalcode":"35400","locality":"Saint-Malo"}}
{"name":"Jérôme Brochot","address":{"thoroughfare":"Place Beaubernard","postalcode":"71300","locality":"Montceau-les-Mines"}}
{"name":"Les Chênes Verts","address":{"thoroughfare":"rte de Villecroze","postalcode":"83690","locality":"Tourtour"}}
{"name":"Domaine des Séquoias","address":{"thoroughfare":"54 Vie-de-Boussieu","postalcode":"38300","locality":"Ruy"}}
{"name":"Maison Kieny","address":{"thoroughfare":"7 Rue du Général de Gaulle","postalcode":"68400","locality":"Riedisheim"}}
{"name":"Carré des Feuillants","address":{"thoroughfare":"14 rue de Castiglione","postalcode":"75001","locality":"Paris 01"}}
{"name":"Au Trou Gascon","address":{"thoroughfare":"40 r. Taine","postalcode":"75012","locality":"Paris 12"}}
{"name":"Le Parc Les Crayères","address":{"thoroughfare":"64 Boulevard Henry Vasnier","postalcode":"51100","locality":"Reims"}}
{"name":"L'Auberge des Glazicks","address":{"thoroughfare":"7 rue de la Plage","postalcode":"29550","locality":"PLOMODIERN"}}
{"name":"Dominique Bouchet","address":{"thoroughfare":"11 Rue Treilhard","postalcode":"75008","locality":"Paris"}}
{"name":"L'Odas","address":{"thoroughfare":"4 Passage Maurice Lenfant","postalcode":"76000","locality":"Rouen"}}
{"name":"Le Taillevent","address":{"thoroughfare":"15 Rue Lamennais","postalcode":"75008","locality":"Paris"}}
{"name":"Neige d'Été","address":{"thoroughfare":"12 Rue de l'Amiral Roussin","postalcode":"75015","locality":"Paris 15"}}
{"name":"Le Hittau","address":{"thoroughfare":"1 rue du Nouaou","postalcode":"40230","locality":"SAINT-VINCENT-DE-TYROSSE"}}
{"name":"Le Fanal","address":{"thoroughfare":"17 Avenue du Fontaulé","postalcode":"66650","locality":"Banyuls-sur-Mer"}}
{"name":"Helen","address":{"thoroughfare":"3 r.Berryer","postalcode":"75008","locality":"Paris"}}
{"name":"Au Déjeuner de Sousceyrac","address":{"thoroughfare":"r. Pierre-Benoit","postalcode":"46190","locality":"Sousceyrac"}}
{"name":"La Passagère","address":{"thoroughfare":"33 boulevard E. -Baudoin","postalcode":"06160","locality":"Juan-les-Pins"}}
{"name":"Assa","address":{"thoroughfare":"189 Quai Ulysse Besnard","postalcode":"41000","locality":"Blois"}}
{"name":"Château de Mercuès","address":{"thoroughfare":"Route du Château","postalcode":"46090","locality":"Mercuès"}}
{"name":"Loiseau rive Gauche","address":{"thoroughfare":"5 rue Bourgogne","postalcode":"75007","locality":"Paris 07"}}
{"name":"Le Petit Nice","address":{"thoroughfare":"Anse de Maldormé - Corniche J. F. Kennedy","postalcode":"13007","locality":"Marseille 07"}}
{"name":"Têtedoie","address":{"thoroughfare":"4 rue du Professeur Pierre MARION","postalcode":"69005","locality":"Lyon 05"}}
{"name":"Pic","address":{"thoroughfare":"285 avenue Victor Hugo","postalcode":"26000","locality":"Valence"}}
{"name":"L'Orangerie du Château","address":{"thoroughfare":"1 Avenue du Docteur Jean Laigret","postalcode":"41000","locality":"Blois"}}
{"name":"Auberge de l'Ill","address":{"thoroughfare":"2 rue de Collonges-au-Mont d'Or","postalcode":"68970","locality":"Illhaeusern"}}
{"name":"La Barbacane","address":{"thoroughfare":"Place Auguste-Pierre-Pont","postalcode":"11000","locality":"Carcassonne"}}
{"name":"Le Meurice Alain Ducasse","address":{"thoroughfare":"228 Rue de Rivoli","postalcode":"75001","locality":"Paris"}}
{"name":"Domaine de Clairefontaine","address":{"thoroughfare":"chemin des Fontanettes","postalcode":"38121","locality":"Chonas-l'Amballan"}}
{"name":"Jean Sulpice","address":{"thoroughfare":"303 rte du Port","postalcode":"74290","locality":"Talloires"}}
{"name":"U Santa Marina","address":{"thoroughfare":"Marina di Santa Giulia","postalcode":"20137","locality":"Porto-Vecchio"}}
{"name":"Le Pressoir","address":{"thoroughfare":"7 r. de l'Hôpital","postalcode":"56890","locality":"Saint-Avé"}}
{"name":"Gill","address":{"thoroughfare":"9 quai de la Bourse","postalcode":"76000","locality":"Rouen"}}
{"name":"Le Quincangrogne","address":{"thoroughfare":"7 Rue de l'Abreuvoir","postalcode":"77400","locality":"Dampmart"}}
{"name":"La Dame de Pic","address":{"thoroughfare":"20 Rue du Louvre","postalcode":"75001","locality":"Paris 01"}}
{"name":"La Grand'Vigne","address":{"thoroughfare":"chemin de Smith-Haut-Lafitte","postalcode":"33650","locality":"Martillac"}}
{"name":"G.a. au Manoir de Rétival","address":{"thoroughfare":"Corniche de Rétival","postalcode":"76490","locality":"Caudebec-en-Caux"}}
{"name":"Copenhague","address":{"thoroughfare":"142 AVENUE DES CHAMPS ELYSEES","postalcode":"75008","locality":"PARIS"}}
{"name":"La Table de Manville","address":{"thoroughfare":"Domaine de Manville - D27","postalcode":"13520","locality":"Les Baux-de-Provence"}}
{"name":"Clovis","address":{"thoroughfare":"21 Grand-Rue","postalcode":"06140","locality":"Tourrettes-sur-Loup"}}
{"name":"Le Roc Alto","address":{"thoroughfare":"Quartier La Ville","postalcode":"05350","locality":"SAINT-VERAN"}}
{"name":"Agapé","address":{"thoroughfare":"51 rue Jouffroy-d'Abbans","postalcode":"75017","locality":"Paris 17"}}
{"name":"Le Vieux Logis","address":{"thoroughfare":"Le Bourg","postalcode":"24510","locality":"Trémolat"}}
{"name":"La Réserve Rimbaud","address":{"thoroughfare":"820 Avenue de Saint-Maur","postalcode":"34000","locality":"Montpellier"}}
{"name":"Une Île","address":{"thoroughfare":"9 r. Max-Richard","postalcode":"49000","locality":"Angers"}}
{"name":"Auberge des Saints Pères","address":{"thoroughfare":"212 av. de Nonneville","postalcode":"93600","locality":"Aulnay-sous-Bois"}}
{"name":"Fontevraud Le Restaurant","address":{"thoroughfare":"38 rue St-Jean-de-l'Habit","postalcode":"49590","locality":"FONTEVRAUD-L'ABBAYE"}}
{"name":"Le Puits du Trésor","address":{"thoroughfare":"21 rte des Quatre-Châteaux","postalcode":"11600","locality":"Lastours"}}
{"name":"La Palmeraie","address":{"thoroughfare":"81 Boulevard de Gigaro","postalcode":"83420","locality":"La Croix-Valmer"}}
{"name":"Le Pavé d'Auge","address":{"thoroughfare":"D49","postalcode":"14430","locality":"Beuvron-en-Auge"}}
{"name":"Le Bistrot de Lagarde","address":{"thoroughfare":"rte d'Apt","postalcode":"84400","locality":"Lagarde-d'Apt"}}
{"name":"Le Grand Bleu","address":{"thoroughfare":"43 av. de la Gare","postalcode":"24200","locality":"Sarlat-la-Canéda"}}
{"name":"L'Amphitryon","address":{"thoroughfare":"127 r. du Col. -Müller","postalcode":"56100","locality":"Lorient"}}
{"name":"Michel Trama","address":{"thoroughfare":"52 r. Royale","postalcode":"47270","locality":"Puymirol"}}
{"name":"La Maison dans le Parc","address":{"thoroughfare":"3 r. Ste-Catherine","postalcode":"54000","locality":"Nancy"}}
{"name":"Hostellerie de Levernois","address":{"thoroughfare":"15 r. du Golf","postalcode":"21200","locality":"Levernois"}}
{"name":"La Ferme de l'Hospital","address":{"thoroughfare":"rte du golf","postalcode":"74160","locality":"Bossey"}}
{"name":"Cayola","address":{"thoroughfare":"76 promenade de Cayola","postalcode":"85180","locality":"Talmont-Saint-Hilaire"}}
{"name":"Mirazur","address":{"thoroughfare":"30, Avenue Aristide Briand","postalcode":"06500","locality":"Menton"}}
{"name":"Le Pré - Xavier Beaudiment","address":{"thoroughfare":"3 Route de la Baraque","postalcode":"63830","locality":"Durtol"}}
{"name":"Nakatani","address":{"thoroughfare":"27 Rue Pierre Leroux","postalcode":"75007","locality":"PARIS"}}
{"name":"Les Berceaux","address":{"thoroughfare":"13 rue des Berceaux","postalcode":"51200","locality":"Épernay"}}
{"name":"1131","address":{"thoroughfare":"D 33","postalcode":"21360","locality":"La Bussière-sur-Ouche"}}
{"name":"Michel Sarran","address":{"thoroughfare":"21 bd A.-Duportal","postalcode":"31000","locality":"Toulouse"}}
{"name":"Louison","address":{"thoroughfare":"2750 route de la cride","postalcode":"13610","locality":"Le Puy-Sainte-Réparade"}}
{"name":"Auberge du Cellier","address":{"thoroughfare":"1 Rue de Sainte-Eugénie","postalcode":"66720","locality":"Montner"}}
{"name":"Auberge Grand'Maison","address":{"thoroughfare":"1 r. Léon-le-Cerf","postalcode":"22530","locality":"Mûr-de-Bretagne"}}
{"name":"Le 1947","address":{"thoroughfare":"Cheval Blanc Courchevel - Le Jardin Alpin","postalcode":"73120","locality":"Courchevel 1850"}}
{"name":"Le Magasin aux Vivres","address":{"thoroughfare":"5 Avenue Ney","postalcode":"57000","locality":"Metz"}}
{"name":"Le Kaïku","address":{"thoroughfare":"17 r. de la République","postalcode":"64500","locality":"Saint-Jean-de-Luz"}}
{"name":"Elsa","address":{"thoroughfare":"Monte-Carlo Beach - Avenue Princesse Grace","postalcode":"06190","locality":"Roquebrune Cap-Martin"}}
{"name":"Le Strasbourg","address":{"thoroughfare":"24 r. du Col. -Teyssier","postalcode":"57230","locality":"Bitche"}}
{"name":"La Table Breizh Café","address":{"thoroughfare":"7 quai Thomas","postalcode":"35260","locality":"Cancale"}}
{"name":"La Ribaudière","address":{"thoroughfare":"2 pl. du Port","postalcode":"16200","locality":"Bourg-Charente"}}
{"name":"L'Orangerie","address":{"thoroughfare":"31 Avenue George-V","postalcode":"75008","locality":"Paris"}}
{"name":"La Table de Chaintré","address":{"thoroughfare":"72 pl. du Luminaire","postalcode":"71570","locality":"Chaintré"}}
{"name":"Le Champ des Lunes","address":{"thoroughfare":"route de Roquefraîche","postalcode":"84360","locality":"Lauris"}}
{"name":"Auberge La Pomme d'Api","address":{"thoroughfare":"49 r. Verderel","postalcode":"29250","locality":"Saint-Pol-de-Léon"}}
{"name":"La Grenouillère","address":{"thoroughfare":"19 r. de la Grenouillère","postalcode":"62170","locality":"La Madelaine-sous-Montreuil"}}
{"name":"L'Écrin","address":{"thoroughfare":"10 place de la Concorde","postalcode":"75008","locality":"Paris"}}
{"name":"Maison Jeunet","address":{"thoroughfare":"9 r. de l'Hôtel-de-Ville","postalcode":"39600","locality":"Arbois"}}
{"name":"Au Souper Fin","address":{"thoroughfare":"1 rte de Clères","postalcode":"76690","locality":"Frichemesnil"}}
{"name":"La Marine","address":{"thoroughfare":"3 r. Marie-Lemonnier","postalcode":"85330","locality":"L'Herbaudière"}}
{"name":"Hostellerie du Rosenmeer","address":{"thoroughfare":"45 avenue de la Gare","postalcode":"67560","locality":"ROSHEIM"}}
{"name":"Le Prince Noir - Vivien Durand","address":{"thoroughfare":"1 rue du Prince Noir","postalcode":"33310","locality":"Lormont"}}
{"name":"Septime","address":{"thoroughfare":"80 r. de Charonne","postalcode":"75011","locality":"Paris"}}
{"name":"1912","address":{"thoroughfare":"bd de la Cahotte","postalcode":"14360","locality":"Trouville-sur-Mer"}}
{"name":"Le Saint-Martin","address":{"thoroughfare":"Avenue des Templiers","postalcode":"06140","locality":"Vence"}}
{"name":"Le Chiquito","address":{"thoroughfare":"3 r. de l'Oise, La Bonneville","postalcode":"95540","locality":"Méry-sur-Oise"}}
{"name":"Pertica","address":{"thoroughfare":"15 pl. de la République","postalcode":"41100","locality":"Vendôme"}}
{"name":"Le Cercle","address":{"thoroughfare":"44 bd Lahitolle","postalcode":"18000","locality":"Bourges"}}
{"name":"Le Pré Catelan","address":{"thoroughfare":"Route de Suresnes","postalcode":"75016","locality":"Paris"}}
{"name":"La Table de l'Alpaga","address":{"thoroughfare":"66 Allée des Marmousets","postalcode":"74120","locality":"Megève"}}
{"name":"Comice","address":{"thoroughfare":"31 av. de Versailles","postalcode":"75016","locality":"Paris"}}
{"name":"Auberge du Pont d'Acigné","address":{"thoroughfare":"D392","postalcode":"35530","locality":"Noyal-sur-Vilaine"}}
{"name":"Skab","address":{"thoroughfare":"7 Rue de la République","postalcode":"30000","locality":"nimes"}}
{"name":"Le Gourmet de Sèze","address":{"thoroughfare":"125 Rue de Sèze","postalcode":"69006","locality":"Lyon"}}
{"name":"Le Gambetta","address":{"thoroughfare":"12 r. Gambetta","postalcode":"49400","locality":"Saumur"}}
{"name":"La Roya","address":{"thoroughfare":"plage de la Roya","postalcode":"20217","locality":"Saint-Florent"}}
{"name":"La Table de Nans","address":{"thoroughfare":"corniche du Liouquet","postalcode":"13600","locality":"La Ciotat"}}
{"name":"La Table du Gourmet","address":{"thoroughfare":"5 rue 1ère Armée","postalcode":"68340","locality":"Riquewihr"}}
{"name":"Meulien","address":{"thoroughfare":"1 bis av. des Alpes","postalcode":"71700","locality":"Tournus"}}
{"name":"Le Lido","address":{"thoroughfare":"42 av. Napoléon-III","postalcode":"20110","locality":"Propriano"}}
{"name":"Au Crocodile","address":{"thoroughfare":"10 rue de L'Outre","postalcode":"67000","locality":"STRASBOURG"}}
{"name":"114, Faubourg","address":{"thoroughfare":"114 r. Fg St-Honoré","postalcode":"75008","locality":"Paris 08"}}
{"name":"Château Cordeillan-Bages","address":{"thoroughfare":"route des chateaux","postalcode":"33250","locality":"Pauillac"}}
{"name":"Le Lièvre Gourmand","address":{"thoroughfare":"28 quai du Châtelet","postalcode":"45000","locality":"Orléans"}}
{"name":"La Lorraine","address":{"thoroughfare":"80 rue Principale","postalcode":"57330","locality":"Zoufftgen"}}
{"name":"La Chèvre d'Or","address":{"thoroughfare":"r. du Barri","postalcode":"06360","locality":"Èze"}}
{"name":"La Closerie","address":{"thoroughfare":"bd des Platanes","postalcode":"84240","locality":"Ansouis"}}
{"name":"Le Bistro des Saveurs","address":{"thoroughfare":"35 Rue de Sélestat","postalcode":"67210","locality":"Obernai"}}
{"name":"Auberge St-Walfrid","address":{"thoroughfare":"58 r. de Grosbliederstroff","postalcode":"57200","locality":"Sarreguemines"}}
{"name":"Jin","address":{"thoroughfare":"6 Rue de la Sourdière","postalcode":"75001","locality":"Paris"}}
{"name":"Palm Beach","address":{"thoroughfare":"route des Iles Sanguinaires","postalcode":"20000","locality":"Ajaccio"}}
{"name":"Le Bois sans Feuilles","address":{"thoroughfare":"728 Route de Villerest","postalcode":"42155","locality":"Ouches"}}
