{"name":"ASSA","address":{"city":"Blois","zipcode":"41000"},"event":"","promotions":""}
{"name":"Alain Llorca","address":{"city":"La Colle-sur-Loup","zipcode":"06480"},"event":"","promotions":""}
{"name":"Auberge au Boeuf","address":{"city":"Sessenheim","zipcode":"67770"},"event":"","promotions":""}
{"name":"La Tour des Vents","address":{"city":"Monbazillac","zipcode":"24240"},"event":"","promotions":""}
{"name":"Pertinence","address":{"city":"Paris","zipcode":"75007"},"event":"","promotions":""}
{"name":"Auberge Saint Walfrid","address":{"city":"Sarreguemines","zipcode":"57200"},"event":"","promotions":""}
{"name":"Au Trou Gascon - Alain Dutournier","address":{"city":"Paris","zipcode":"75012"},"event":"","promotions":"Menu Gourmands 89€"}
{"name":"Divellec","address":{"city":"Paris","zipcode":"75007"},"event":"","promotions":""}
{"name":"Palm Beach","address":{"city":"Ajaccio","zipcode":"20000"},"event":"","promotions":""}
{"name":"Restaurant H","address":{"city":"Paris","zipcode":"75004"},"event":"","promotions":""}
{"name":"Auberge des Templiers","address":{"city":"Boismorand","zipcode":"45290"},"event":"","promotions":""}
{"name":"MONTÉE","address":{"city":"Paris","zipcode":"75014"},"event":"","promotions":""}
{"name":"Saturne","address":{"city":"Paris","zipcode":"75002"},"event":"","promotions":""}
{"name":"Quinsou","address":{"city":"Paris","zipcode":"75006"},"event":"","promotions":""}
{"name":"Comice","address":{"city":"Paris","zipcode":"75016"},"event":"","promotions":""}
{"name":"Le Chateaubriand","address":{"city":"Paris","zipcode":"75011"},"event":"","promotions":""}
{"name":"Ken Kawasaki","address":{"city":"Paris","zipcode":"75018"},"event":"","promotions":""}
{"name":"Le Bistro des Saveurs","address":{"city":"Obernai","zipcode":"67210"},"event":"","promotions":""}
{"name":"Le Neuvième Art","address":{"city":"Lyon","zipcode":"69006"},"event":"","promotions":""}
{"name":"Sushi-B Paris","address":{"city":"Paris","zipcode":"75002"},"event":"","promotions":""}
{"name":"L’Atelier de Gaztelur","address":{"city":"Arcangues","zipcode":"64200"},"event":"","promotions":""}
{"name":"La Salle à Manger - Hélène Darroze","address":{"city":"Paris","zipcode":"75006"},"event":"","promotions":"Menu Déjeuner Business Tout Inclus à 89€"}
{"name":"Le Saint-James - Nicolas Magie","address":{"city":"Bouliac","zipcode":"33270"},"event":"","promotions":""}
{"name":"Le Salon d'Hélène - Hélène Darroze","address":{"city":"Paris","zipcode":"75006"},"event":"","promotions":""}
{"name":"Qui Plume la Lune - Jacky Ribault","address":{"city":"Paris","zipcode":"75011"},"event":"","promotions":"Menu midi prestige 90€ tout compris"}
{"name":"Domaine de Clairefontaine","address":{"city":"Chonas-l'Amballan","zipcode":"38121"},"event":"","promotions":""}
{"name":"Hôtel Restaurant Yoann CONTE, bord du lac","address":{"city":"Veyrier-du-Lac","zipcode":"74290"},"event":"","promotions":""}
{"name":"Le Baudelaire - Hôtel Le Burgundy Paris","address":{"city":"Paris","zipcode":"75001"},"event":"","promotions":"-20% sur la carte !Menu Gourmands 130€"}
{"name":"Le Château de Sable","address":{"city":"Porspoder","zipcode":"29840"},"event":"","promotions":""}
{"name":"Gordon Ramsay au Trianon","address":{"city":"Versailles","zipcode":"78000"},"event":"","promotions":""}
{"name":"La Grange de Belle Eglise","address":{"city":"Belle-Église","zipcode":"60540"},"event":"","promotions":"-30% sur la carte"}
{"name":"Restaurant Auguste - Gaël Orieux","address":{"city":"Paris","zipcode":"75007"},"event":"","promotions":"Menu Prestige 118€ Tout Compris !"}
{"name":"Henri et Joseph","address":{"city":"Lorient","zipcode":"56100"},"event":"","promotions":""}
{"name":"Saint James Paris","address":{"city":"Paris","zipcode":"75116"},"event":"","promotions":""}
{"name":"La Table du Connétable","address":{"city":"Chantilly","zipcode":"60500"},"event":"Menu Saint-Valentin 250 €","promotions":""}
{"name":"Maison Kieny","address":{"city":"Riedisheim","zipcode":"68400"},"event":"","promotions":""}
{"name":"La Côte Saint-Jacques","address":{"city":"Joigny","zipcode":"89300"},"event":"","promotions":""}
{"name":"Cobéa - Philippe Bélissent","address":{"city":"Paris","zipcode":"75014"},"event":"","promotions":""}
{"name":"Benoit - Alain Ducasse","address":{"city":"Paris","zipcode":"75004"},"event":"","promotions":"Menu Mardis Gourmands 125€"}
{"name":"Le 39V Paris - Frédéric Vardon","address":{"city":"Paris","zipcode":"75008"},"event":"","promotions":""}
{"name":"Domaine d'Auriac","address":{"city":"Carcassonne","zipcode":"11000"},"event":"","promotions":""}
{"name":"Apicius","address":{"city":"Paris","zipcode":"75008"},"event":"","promotions":""}
{"name":"La Chassagnette","address":{"city":"Arles","zipcode":"13200"},"event":"","promotions":""}
{"name":"Le Vivier","address":{"city":"L'Isle-sur-la-Sorgue","zipcode":"84800"},"event":"","promotions":""}
{"name":"Au Crocodile","address":{"city":"Strasbourg","zipcode":"67000"},"event":"","promotions":""}
{"name":"L'Océan - Grand Hôtel","address":{"city":"Saint-Jean-de-Luz","zipcode":"64500"},"event":"","promotions":""}
{"name":"Ô Saveurs","address":{"city":"Rouffiac-Tolosan","zipcode":"31180"},"event":"","promotions":""}
{"name":"Jin","address":{"city":"Paris","zipcode":"75001"},"event":"","promotions":""}
{"name":"La Renaissance","address":{"city":"Argentan","zipcode":"61200"},"event":"","promotions":""}
{"name":"Bistrot Gourmand Clovis","address":{"city":"Tourrettes-sur-Loup","zipcode":"06140"},"event":"","promotions":""}
{"name":"Buerehiesel - Eric Westermann","address":{"city":"Strasbourg","zipcode":"67000"},"event":"","promotions":""}
{"name":"La Table du Gourmet","address":{"city":"Riquewihr","zipcode":"68340"},"event":"","promotions":""}
{"name":"La Nouvelle Auberge","address":{"city":"Wihr-au-Val","zipcode":"68230"},"event":"","promotions":""}
{"name":"Antoine - Thibault Sombardier","address":{"city":"Paris","zipcode":"75116"},"event":"","promotions":"Menu Mardis Gourmands 109€"}
{"name":"Le Park 45","address":{"city":"Cannes","zipcode":"06400"},"event":"","promotions":""}
{"name":"L'Epuisette","address":{"city":"Marseille","zipcode":"13007"},"event":"","promotions":""}
{"name":"L'Abeille - Shangri-La Hotel, Paris","address":{"city":"Paris","zipcode":"75016"},"event":"","promotions":""}
{"name":"Neige d'été","address":{"city":"Paris","zipcode":"75015"},"event":"","promotions":""}
